NORAD_CAT_ID,OBJECT_NAME,OBJECT_TYPE,EPOCH,MEAN_MOTION,ECCENTRICITY,INCLINATION,RA_OF_ASC_NODE,ARG_OF_PERICENTER,MEAN_ANOMALY,BSTAR,MEAN_MOTION_DOT,MEAN_MOTION_DDOT,TLE_LINE0,TLE_LINE1,TLE_LINE2,SEMIMAJOR_AXIS,PERIOD,APOGEE,PERIGEE,DECAYED
54779.0,STARLINK-5447,PAYLOAD,2024-07-30 23:19:49,15.08849108,0.0001367,53.2184,143.1041,87.104,273.0109,5.3752e-05,5.68e-06,0.0,0 STARLINK-5447,1 54779U 22175X   24212.97210150  .00000568  00000-0  53752-4 0  9990,2 54779  53.2184 143.1041 0001367  87.1040 273.0109 15.08849108 91554,6917.853,95.437,540.663,538.772,0.0
54779.0,STARLINK-5447,PAYLOAD,2024-07-31 02:30:35,15.08854166,0.0001245,53.2166,142.5075,82.9223,277.191,9.5238e-05,1.229e-05,0.0,0 STARLINK-5447,1 54779U 22175X   24213.10457597  .00001229  00000-0  95238-4 0  9994,2 54779  53.2166 142.5075 0001245  82.9223 277.1910 15.08854166 89412,6917.837,95.437,540.563,538.841,0.0
54779.0,STARLINK-5447,PAYLOAD,2024-07-31 12:02:55,15.08839286,0.0001032,53.2158,140.7252,84.7007,275.4103,7.6291e-05,9.27e-06,0.0,0 STARLINK-5447,1 54779U 22175X   24213.50202601  .00000927  00000-0  76291-4 0  9994,2 54779  53.2158 140.7252 0001032  84.7007 275.4103 15.08839286 89471,6917.883,95.438,540.461,539.034,0.0
54779.0,STARLINK-5447,PAYLOAD,2024-07-31 23:10:37,15.08832011,0.0001461,53.2175,138.6448,103.061,257.0545,-9.5516e-06,-4.4e-06,0.0,0 STARLINK-5447,1 54779U 22175X   24213.96571501 -.00000440  00000-0 -95516-5 0  9996,2 54779  53.2175 138.6448 0001461 103.0610 257.0545 15.08832011 91708,6917.905,95.438,540.781,538.759,0.0
54779.0,STARLINK-5447,PAYLOAD,2024-08-01 00:46:00,15.08833507,0.0001613,53.2179,138.3465,102.6161,257.5011,2.045e-06,-2.55e-06,0.0,0 STARLINK-5447,1 54779U 22175X   24214.03195421 -.00000255  00000-0  20450-5 0  9996,2 54779  53.2179 138.3465 0001613 102.6161 257.5011 15.08833507 89557,6917.9,95.438,540.881,538.649,0.0
54779.0,STARLINK-5447,PAYLOAD,2024-08-01 11:53:41,15.08846049,0.0001598,53.2186,136.2649,98.3882,261.7292,9.3164e-05,1.195e-05,0.0,0 STARLINK-5447,1 54779U 22175X   24214.49562413  .00001195  00000-0  93164-4 0  9999,2 54779  53.2186 136.2649 0001598  98.3882 261.7292 15.08846049 91780,6917.862,95.437,540.832,538.621,0.0
54779.0,STARLINK-5447,PAYLOAD,2024-08-01 23:01:23,15.0885151,0.0001709,53.2191,134.1836,97.048,263.0707,0.00011061,1.473e-05,0.0,0 STARLINK-5447,1 54779U 22175X   24214.95929901  .00001473  00000-0  11061-3 0  9993,2 54779  53.2191 134.1836 0001709  97.0480 263.0707 15.08851510 91858,6917.845,95.437,540.892,538.528,0.0
54779.0,STARLINK-5447,PAYLOAD,2024-08-02 02:12:09,15.08857428,0.0001411,53.217,133.5876,91.5752,268.5402,0.00012148,1.647e-05,0.0,0 STARLINK-5447,1 54779U 22175X   24215.09177392  .00001647  00000-0  12148-3 0  9998,2 54779  53.2170 133.5876 0001411  91.5752 268.5402 15.08857428 89711,6917.827,95.436,540.668,538.716,0.0
54779.0,STARLINK-5447,PAYLOAD,2024-08-02 11:44:29,15.08837605,0.0001576,53.2175,131.8063,88.029,272.0882,5.5772e-05,6e-06,0.0,0 STARLINK-5447,1 54779U 22175X   24215.48922941  .00000600  00000-0  55772-4 0  9998,2 54779  53.2175 131.8063 0001576  88.0290 272.0882 15.08837605 89778,6917.888,95.438,540.843,538.662,0.0
54779.0,STARLINK-5447,PAYLOAD,2024-08-02 18:06:02,15.08829621,0.0001624,53.2155,130.6152,89.5202,270.5976,7.4551e-05,8.98e-06,0.0,0 STARLINK-5447,1 54779U 22175X   24215.75419521  .00000898  00000-0  74551-4 0  9998,2 54779  53.2155 130.6152 0001624  89.5202 270.5976 15.08829621 89816,6917.912,95.438,540.901,538.654,0.0
54779.0,STARLINK-5447,PAYLOAD,2024-08-02 22:52:12,15.08826398,0.0001816,53.2164,129.7226,89.7586,270.3614,3.8883e-05,3.31e-06,0.0,0 STARLINK-5447,1 54779U 22175X   24215.95291992  .00000331  00000-0  38883-4 0  9990,2 54779  53.2164 129.7226 0001816  89.7586 270.3614 15.08826398 92007,6917.922,95.438,541.043,538.531,0.0
54779.0,STARLINK-5447,PAYLOAD,2024-08-03 03:38:21,15.08835674,0.0001273,53.2158,128.8293,85.1998,274.914,8.4235e-05,1.053e-05,0.0,0 STARLINK-5447,1 54779U 22175X   24216.15163416  .00001053  00000-0  84235-4 0  9996,2 54779  53.2158 128.8293 0001273  85.1998 274.9140 15.08835674 92032,6917.894,95.438,540.639,538.878,0.0
54779.0,STARLINK-5447,PAYLOAD,2024-08-03 22:42:58,15.08842984,0.0001369,53.2154,125.2614,87.4036,272.7113,0.00010829,1.436e-05,0.0,0 STARLINK-5447,1 54779U 22175X   24216.94650975  .00001436  00000-0  10829-3 0  9996,2 54779  53.2154 125.2614 0001369  87.4036 272.7113 15.08842984 92151,6917.871,95.437,540.683,538.789,0.0
54779.0,STARLINK-5447,PAYLOAD,2024-08-04 00:18:21,15.0884763,0.0001213,53.2158,124.9615,95.4248,264.6882,8.9189e-05,1.132e-05,0.0,0 STARLINK-5447,1 54779U 22175X   24217.01274669  .00001132  00000-0  89189-4 0  9996,2 54779  53.2158 124.9615 0001213  95.4248 264.6882 15.08847630 90002,6917.857,95.437,540.561,538.883,0.0
54779.0,STARLINK-5447,PAYLOAD,2024-08-04 11:26:02,15.08854026,0.0001179,53.2159,122.8806,100.544,259.5685,0.00020773,3.021e-05,0.0,0 STARLINK-5447,1 54779U 22175X   24217.47642264  .00003021  00000-0  20773-3 0  9998,2 54779  53.2159 122.8806 0001179 100.5440 259.5685 15.08854026 92233,6917.838,95.437,540.518,538.887,0.0
54779.0,STARLINK-5447,PAYLOAD,2024-08-04 22:33:45,15.08853372,0.0001705,53.2174,120.8029,83.4594,276.6592,0.00044286,6.77e-05,0.0,0 STARLINK-5447,1 54779U 22175X   24217.94010828  .00006770  00000-0  44286-3 0  9994,2 54779  53.2174 120.8029 0001705  83.4594 276.6592 15.08853372 92307,6917.84,95.437,540.884,538.525,0.0
54779.0,STARLINK-5447,PAYLOAD,2024-08-05 20:49:09,15.08836673,0.0001578,53.2168,116.6363,96.6558,263.4613,-4.7879e-05,-1.05e-05,0.0,0 STARLINK-5447,1 54779U 22175X   24218.86747280 -.00001050  00000-0 -47879-4 0  9995,2 54779  53.2168 116.6363 0001578  96.6558 263.4613 15.08836673 90286,6917.891,95.438,540.847,538.664,0.0
54779.0,STARLINK-5447,PAYLOAD,2024-08-05 22:24:32,15.08835552,0.0001534,53.2167,116.3388,98.1967,261.9199,-6.4805e-05,-1.319e-05,0.0,0 STARLINK-5447,1 54779U 22175X   24218.93371317 -.00001319  00000-0 -64805-4 0  9993,2 54779  53.2167 116.3388 0001534  98.1967 261.9199 15.08835552 92450,6917.894,95.438,540.82,538.698,0.0
54779.0,STARLINK-5447,PAYLOAD,2024-08-06 03:10:42,15.0883949,0.0001141,53.2146,115.4493,80.5342,279.5779,-9.0608e-05,-1.73e-05,0.0,0 STARLINK-5447,1 54779U 22175X   24219.13243325 -.00001730  00000-0 -90608-4 0  9990,2 54779  53.2146 115.4493 0001141  80.5342 279.5779 15.08839490 92487,6917.882,95.438,540.536,538.958,0.0
54779.0,STARLINK-5447,PAYLOAD,2024-08-06 22:15:19,15.08843318,0.0001577,53.2167,111.8791,77.9468,282.1701,0.00011937,1.612e-05,0.0,0 STARLINK-5447,1 54779U 22175X   24219.92731423  .00001612  00000-0  11937-3 0  9992,2 54779  53.2167 111.8791 0001577  77.9468 282.1701 15.08843318 92606,6917.87,95.437,540.826,538.644,0.0
54779.0,STARLINK-5447,PAYLOAD,2024-08-06 23:50:42,15.08850818,0.0001503,53.2159,111.5814,77.003,283.113,0.00012313,1.673e-05,0.0,0 STARLINK-5447,1 54779U 22175X   24219.99355004  .00001673  00000-0  12313-3 0  9992,2 54779  53.2159 111.5814 0001503  77.0030 283.1130 15.08850818 90456,6917.847,95.437,540.752,538.673,0.0
54779.0,STARLINK-5447,PAYLOAD,2024-08-07 20:30:44,15.08842039,0.000197,53.2156,107.7162,61.896,298.2231,0.00021552,3.144e-05,0.0,0 STARLINK-5447,1 54779U 22175X   24220.85467827  .00003144  00000-0  21552-3 0  9996,2 54779  53.2156 107.7162 0001970  61.8960 298.2231 15.08842039 90586,6917.874,95.437,541.102,538.376,0.0
54779.0,STARLINK-5447,PAYLOAD,2024-08-08 21:56:54,15.08844701,0.0001668,53.2156,102.9585,88.3181,271.8002,0.00017592,2.513e-05,0.0,0 STARLINK-5447,1 54779U 22175X   24221.91451427  .00002513  00000-0  17592-3 0  9991,2 54779  53.2156 102.9585 0001668  88.3181 271.8002 15.08844701 92904,6917.866,95.437,540.885,538.577,0.0
54779.0,STARLINK-5447,PAYLOAD,2024-08-09 01:07:40,15.08848672,0.0001755,53.216,102.3633,65.9198,294.1978,0.00012448,1.694e-05,0.0,0 STARLINK-5447,1 54779U 22175X   24222.04699373  .00001694  00000-0  12448-3 0  9994,2 54779  53.2160 102.3633 0001755  65.9198 294.1978 15.08848672 90766,6917.854,95.437,540.933,538.505,0.0
54779.0,STARLINK-5447,PAYLOAD,2024-08-09 09:04:35,15.08854028,0.0001644,53.2161,100.8744,75.1165,285.0009,0.00013358,1.839e-05,0.0,0 STARLINK-5447,1 54779U 22175X   24222.37818841  .00001839  00000-0  13358-3 0  9995,2 54779  53.2161 100.8744 0001644  75.1165 285.0009 15.08854028 92978,6917.838,95.437,540.84,538.565,0.0
54779.0,STARLINK-5447,PAYLOAD,2024-08-09 20:12:18,15.08836968,0.0001792,53.2154,98.7964,86.2614,273.8583,4.953e-05,5e-06,0.0,0 STARLINK-5447,1 54779U 22175X   24222.84187864  .00000500  00000-0  49530-4 0  9997,2 54779  53.2154  98.7964 0001792  86.2614 273.8583 15.08836968 90888,6917.89,95.438,540.994,538.515,0.0
54779.0,STARLINK-5447,PAYLOAD,2024-08-09 21:47:40,15.0884712,0.0001603,53.217,98.4948,101.5075,258.6097,0.00022222,3.251e-05,0.0,0 STARLINK-5447,1 54779U 22175X   24222.90811239  .00003251  00000-0  22222-3 0  9998,2 54779  53.2170  98.4948 0001603 101.5075 258.6097 15.08847120 93053,6917.859,95.437,540.833,538.615,0.0
54779.0,STARLINK-5447,PAYLOAD,2024-08-09 23:23:04,15.08849467,0.000147,53.2162,98.1973,92.502,267.614,0.00028957,4.325e-05,0.0,0 STARLINK-5447,1 54779U 22175X   24222.97435212  .00004325  00000-0  28957-3 0  9992,2 54779  53.2162  98.1973 0001470  92.5020 267.6140 15.08849467 90906,6917.851,95.437,540.733,538.7,0.0
54779.0,STARLINK-5447,PAYLOAD,2024-08-10 20:03:05,15.0883867,0.0001809,53.2153,94.3391,69.648,290.4707,7.0637e-05,8.36e-06,0.0,0 STARLINK-5447,1 54779U 22175X   24223.83548004  .00000836  00000-0  70637-4 0  9998,2 54779  53.2153  94.3391 0001809  69.6480 290.4707 15.08838670 91031,6917.884,95.438,541.001,538.498,0.0
54779.0,STARLINK-5447,PAYLOAD,2024-08-10 21:38:28,15.08843553,0.0001658,53.2149,94.0395,81.0992,279.0188,0.00013078,1.794e-05,0.0,0 STARLINK-5447,1 54779U 22175X   24223.90171716  .00001794  00000-0  13078-3 0  9997,2 54779  53.2149  94.0395 0001658  81.0992 279.0188 15.08843553 93208,6917.87,95.437,540.882,538.588,0.0
